FLOCK 3P-47             
1 42032U 17008CN  17345.72668889  .00001773  00000-0  76863-4 0  9993
2 42032  97.4755  46.5794 0006862 319.3045  40.7679 15.23684706 45387
